[{"OBJECT_NAME":"STARLINK-2557","OBJECT_ID":"2021-036Z","EPOCH":"2026-03-09T10:33:32.118912","MEAN_MOTION":15.30191386,"ECCENTRICITY":0.00013832,"INCLINATION":53.1592,"RA_OF_ASC_NODE":76.5327,"ARG_OF_PERICENTER":91.7171,"MEAN_ANOMALY":268.3988,"EPHEMERIS_TYPE":0,"CLASSIFICATION_TYPE":"U","NORAD_CAT_ID":48299,"ELEMENT_SET_NO":999,"REV_AT_EPOCH":26837,"BSTAR":0.00013371948,"MEAN_MOTION_DOT":3.602e-5,"MEAN_MOTION_DDOT":0},{"OBJECT_NAME":"COSMOS 970 DEB","OBJECT_ID":"1977-121BY","EPOCH":"2026-03-08T00:28:08.036544","MEAN_MOTION":15.38602545,"ECCENTRICITY":0.01254623,"INCLINATION":65.7647,"RA_OF_ASC_NODE":81.4591,"ARG_OF_PERICENTER":84.8291,"MEAN_ANOMALY":276.7158,"EPHEMERIS_TYPE":0,"CLASSIFICATION_TYPE":"U","NORAD_CAT_ID":20327,"ELEMENT_SET_NO":999,"REV_AT_EPOCH":74479,"BSTAR":0.0016623992,"MEAN_MOTION_DOT":0.00084425,"MEAN_MOTION_DDOT":0}]
